ACS3                    
1 59588U 24077B   24144.15450753  .00000101  00000+0  15272-3 0  9991
2 59588  97.4065 218.1479 0020849 159.7112 200.4872 13.67680663  3988
